HORIZONS-2              
1 32388C 07063B   22325.00000000 -.00000164  00000-0  00000-0 0  3259
2 32388   0.0227 287.6035 0001825 318.9144  99.6947  1.00271898    15
HORIZONS-2          [PM]
1 32388C 07063B   22327.97628472 -.00000164  00000-0  00000-0 0  3278
2 32388   0.0120 306.8209 0001835 294.5989  99.1840  1.00272792    12
HORIZONS-2              
1 32388C 07063B   22328.00000000 -.00000164  00000-0  00000-0 0  3285
2 32388   0.0118 307.0055 0001831 294.5232 107.6360  1.00272814    15
GALAXY 18 (G-18)        
1 32951C 08024A   22325.00000000  .00000111  00000-0  00000-0 0  3254
2 32951   0.0224  46.6660 0002789 192.5248  57.8314  1.00270611    12
GALAXY 18 (G-18)        
1 32951C 08024A   22328.00000000  .00000042  00000-0  00000-0 0  3283
2 32951   0.0490 109.2931 0002752 133.6346  57.0431  1.00271493    10
GALAXY 18 (G-18)    [PM]
1 32951C 08024A   22330.57359954  .00000098  00000-0  00000-0 0  3307
2 32951   0.0449 158.2669 0002645 287.8443  62.8781  1.00270664    18
INTELSAT 25 (IS-25)     
1 33153C 08034A   22325.00000000 -.00000134  00000-0  00000-0 0  3256
2 33153   0.0133 293.0846 0002800 304.8704 150.5525  1.00271999    14
INTELSAT 25 (IS-25)     
1 33153C 08034A   22328.00000000 -.00000134  00000-0  00000-0 0  3282
2 33153   0.0142 303.6377 0002703 296.2215 151.6054  1.00272160    14
INTELSAT 25 (IS-25) [PM]
1 33153C 08034A   22331.82326389 -.00000134  00000-0  00000-0 0  3311
2 33153   0.0393 192.5779 0002750 346.9287 152.0932  1.00271754    15
GALAXY 19 (G-19)        
1 33376C 08045A   22325.00000000 -.00000065  00000-0  00000-0 0  3258
2 33376   0.0470 103.1449 0002784 131.5407  88.3228  1.00271713    13
GALAXY 19 (G-19)        
1 33376C 08045A   22328.00000000 -.00000049  00000-0  00000-0 0  3286
2 33376   0.0555 108.1115 0002698 130.3685  87.4758  1.00271279    16
GALAXY 19 (G-19)    [PM]
1 33376C 08045A   22328.83569444 -.00000049  00000-0  00000-0 0  3289
2 33376   0.0385  42.7668 0002117 131.8304  93.0393  1.00270276    17
INTELSAT 14 (IS-14)     
1 36097C 09064A   22325.00000000 -.00000205  00000-0  00000-0 0  3259
2 36097   0.0115   7.4626 0002473 240.4925 127.0626  1.00270908    13
INTELSAT 14 (IS-14)     
1 36097C 09064A   22328.00000000 -.00000183  00000-0  00000-0 0  3280
2 36097   0.0130 307.9648 0002521 304.5142 125.5003  1.00272256    19
INTELSAT 14 (IS-14) [PM]
1 36097C 09064A   22330.82521991 -.00000185  00000-0  00000-0 0  3305
2 36097   0.0332 206.3162 0002129 319.2713 152.2379  1.00271445    19
INTELSAT 15 (IS-15)     
1 36106C 09067A   22325.00000000 -.00000096  00000-0  00000-0 0  3251
2 36106   0.0182 321.4791 0002143 284.2582 259.4286  1.00271442    15
INTELSAT 15 (IS-15)     
1 36106C 09067A   22328.00000000 -.00000096  00000-0  00000-0 0  3287
2 36106   0.0178 354.9045 0002064 249.9926 263.2241  1.00272266    14
INTELSAT 15 (IS-15) [PM]
1 36106C 09067A   22332.86281250 -.00000096  00000-0  00000-0 0  3329
2 36106   0.0194 311.3981 0002179 300.9899 211.1304  1.00270644    12
INTELSAT 16 (IS-16)     
1 36397C 10006A   22325.00000000 -.00000155  00000-0  00000-0 0  3254
2 36397   0.0160 315.4630 0001937 281.6523 106.7050  1.00271078    12
INTELSAT 16 (IS-16)     
1 36397C 10006A   22328.00000000 -.00000155  00000-0  00000-0 0  3280
2 36397   0.0151 351.2975 0001792 245.2119 110.2671  1.00272192    15
INTELSAT 16 (IS-16) [PM]
1 36397C 10006A   22332.31402778 -.00000155  00000-0  00000-0 0  3322
2 36397   0.0194 306.4936 0001809 297.3959 220.1773  1.00269948    19
INTELSAT 17 (IS-17)     
1 37238C 10065B   22325.00000000  .00000088  00000-0  00000-0 0  3258
2 37238   0.0254 259.0343 0002455 341.6645 245.3141  1.00273724    14
INTELSAT 17 (IS-17) [PM]
1 37238C 10065B   22327.04255787  .00000093  00000-0  00000-0 0  3276
2 37238   0.0169 264.1787 0002323 331.6264 267.5519  1.00270391    10
INTELSAT 17 (IS-17)     
1 37238C 10065B   22328.00000000  .00000095  00000-0  00000-0 0  3282
2 37238   0.0132 264.3747 0002306 332.9388 251.6606  1.00270457    14
INTELSAT NEW DAWN       
1 37392C 11016A   22325.00000000  .00000079  00000-0  00000-0 0  3256
2 37392   0.0039  24.9650 0000635 182.3414 245.5030  1.00263668    13
INTELSAT NEW DAWN       
1 37392C 11016A   22328.00000000  .00000384  00000-0  00000-0 0  3281
2 37392   0.0069 276.6565 0001094 314.2803 224.8426  1.00273733    18
INTELSAT NEW DAWN   [PM]
1 37392C 11016A   22329.01011574  .00000149  00000-0  00000-0 0  3291
2 37392   0.0024 280.0320 0001086 290.6271 249.7673  1.00268811    15
INTELSAT 18 (IS-18)     
1 37834C 11056A   22325.00000000  .00000143  00000-0  00000-0 0  3253
2 37834   0.0302 331.9780 0001871 258.3778   9.6590  1.00271718    17
INTELSAT 18 (IS-18)     
1 37834C 11056A   22328.00000000  .00000143  00000-0  00000-0 0  3289
2 37834   0.0294 355.2534 0001832 230.3381  17.3794  1.00269795    14
INTELSAT 18 (IS-18) [PM]
1 37834C 11056A   22331.59269676  .00000144  00000-0  00000-0 0  3318
2 37834   0.0235 345.6800 0001830 247.9607 226.2206  1.00271405    11
INTELSAT 22 (IS-22)     
1 38098C 12011A   22325.00000000 -.00000174  00000-0  00000-0 0  3253
2 38098   0.0008 307.2946 0002637 287.4776 257.3440  1.00272429    11
INTELSAT 22 (IS-22)     
1 38098C 12011A   22328.00000000  .00000032  00000-0  00000-0 0  3281
2 38098   0.0202  39.9548 0002513 194.1099 261.0045  1.00271447    11
INTELSAT 22 (IS-22) [PM]
1 38098C 12011A   22328.00296296  .00000032  00000-0  00000-0 0  3285
2 38098   0.0203  40.2527 0002519 194.4664 261.4197  1.00271918    16
INTELSAT 19 (IS-19)     
1 38356C 12030A   22325.00000000  .00000034  00000-0  00000-0 0  3255
2 38356   0.0146 295.2857 0002981 307.6961 343.0314  1.00272640    19
INTELSAT 19 (IS-19)     
1 38356C 12030A   22328.00000000  .00000037  00000-0  00000-0 0  3284
2 38356   0.0072 327.8561 0002894 274.0498 347.0674  1.00270840    19
INTELSAT 19 (IS-19) [PM]
1 38356C 12030A   22331.12152778  .00000026  00000-0  00000-0 0  3313
2 38356   0.0077 311.5719 0002812 294.3806  29.8374  1.00270534    19
INTELSAT 20 (IS-20)     
1 38740C 12043A   22325.00000000  .00000065  00000-0  00000-0 0  3250
2 38740   0.0132 183.5649 0003442   8.4145 296.5363  1.00271227    18
INTELSAT 20 (IS-20) [PM]
1 38740C 12043A   22327.72662037  .00000067  00000-0  00000-0 0  3279
2 38740   0.0212 185.0993 0003339 265.6246 302.0560  1.00271870    16
INTELSAT 20 (IS-20)     
1 38740C 12043A   22328.00000000  .00000073  00000-0  00000-0 0  3285
2 38740   0.0288  69.3387 0003431 120.8032 301.3257  1.00269830    16
INTELSAT 21 (IS-21)     
1 38749C 12045A   22325.00000000 -.00000195  00000-0  00000-0 0  3256
2 38749   0.0233 293.0160 0002321 300.8970 128.1116  1.00270797    11
INTELSAT 21 (IS-21) [PM]
1 38749C 12045A   22326.72219907 -.00000195  00000-0  00000-0 0  3265
2 38749   0.0171 304.2076 0002118 286.2929  33.2024  1.00272855    19
INTELSAT 21 (IS-21)     
1 38749C 12045A   22328.00000000 -.00000195  00000-0  00000-0 0  3282
2 38749   0.0126 316.2800 0002071 276.6793 132.0135  1.00272526    13
INTELSAT 23 (IS-23)     
1 38867C 12057A   22325.00000000 -.00000195  00000-0  00000-0 0  3250
2 38867   0.0202 286.9350 0000592 172.4299 267.6814  1.00266575    18
INTELSAT 23 (IS-23) [PM]
1 38867C 12057A   22327.91864583 -.00000195  00000-0  00000-0 0  3278
2 38867   0.0208 254.1508 0001309  79.5116   6.9495  1.00273066    10
INTELSAT 23 (IS-23)     
1 38867C 12057A   22328.00000000 -.00000257  00000-0  00000-0 0  3285
2 38867   0.0119 303.5898 0001307  58.8139   7.5749  1.00273101    14
INTELSAT 30 (IS-30)     
1 40271C 14062A   22325.00000000 -.00000063  00000-0  00000-0 0  3254
2 40271   0.0111 294.0011 0002450 169.1968 221.7691  1.00270301    10
INTELSAT 30 (IS-30) [PM]
1 40271C 14062A   22327.40277778 -.00000058  00000-0  00000-0 0  3274
2 40271   0.0572 114.4125 0002466 133.4496 224.4592  1.00272827    14
INTELSAT 30 (IS-30)     
1 40271C 14062A   22328.00000000 -.00000064  00000-0  00000-0 0  3281
2 40271   0.0066 316.9052 0002484 145.0059 226.0016  1.00270922    17
INTELSAT 34 (IS-34)     
1 40874C 15039A   22325.00000000 -.00000196  00000-0  00000-0 0  3255
2 40874   0.0103 294.9628 0000746 222.5464 207.0175  1.00271253    15
INTELSAT 34 (IS-34)     
1 40874C 15039A   22328.00000000 -.00000253  00000-0  00000-0 0  3285
2 40874   0.0066 320.8146 0000676 172.9153 233.7579  1.00271010    17
INTELSAT 34 (IS-34) [PM]
1 40874C 15039A   22329.25096065 -.00000195  00000-0  00000-0 0  3295
2 40874   0.0503  98.3761 0001096 141.5687 219.1207  1.00271804    11
INTELSAT 31 (IS-31)     
1 41581C 16035A   22325.00000000 -.00000059  00000-0  00000-0 0  3256
2 41581   0.0204 265.3926 0001704 296.3253 123.2506  1.00270872    19
INTELSAT 31 (IS-31)     
1 41581C 16035A   22328.00000000 -.00000056  00000-0  00000-0 0  3289
2 41581   0.0157 275.7991 0001830 280.1476 131.9760  1.00270677    12
INTELSAT 31 (IS-31) [PM]
1 41581C 16035A   22329.37386574 -.00000061  00000-0  00000-0 0  3290
2 41581   0.0549 106.9089 0001996 219.1789 137.7770  1.00271724    11
INTELSAT 36 (IS-36)     
1 41747C 16053A   22325.00000000  .00000065  00000-0  00000-0 0  3256
2 41747   0.0171 318.1715 0001460  61.2111 109.1341  1.00271118    14
INTELSAT 36 (IS-36) [PM]
1 41747C 16053A   22327.30450232  .00000066  00000-0  00000-0 0  3270
2 41747   0.0602 103.1665 0001413  32.1310 105.0987  1.00272620    15
INTELSAT 36 (IS-36)     
1 41747C 16053A   22328.00000000  .00000064  00000-0  00000-0 0  3281
2 41747   0.0157 346.5873 0001316  36.3919 108.4817  1.00270663    11
INTELSAT 33E            
1 41748C 16053B   22325.00000000 -.00000029  00000-0  00000-0 0  3258
2 41748   0.0068 325.9602 0001529 268.3787 245.6621  1.00271402    19
INTELSAT 33E            
1 41748C 16053B   22328.00000000  .00000121  00000-0  00000-0 0  3286
2 41748   0.0093 328.9723 0001589 261.3092 252.6713  1.00272174    19
